OBJECT_NAME,OBJECT_ID,EPOCH,MEAN_MOTION,ECCENTRICITY,INCLINATION,RA_OF_ASC_NODE,ARG_OF_PERICENTER,MEAN_ANOMALY,EPHEMERIS_TYPE,CLASSIFICATION_TYPE,NORAD_CAT_ID,ELEMENT_SET_NO,REV_AT_EPOCH,BSTAR,MEAN_MOTION_DOT,MEAN_MOTION_DDOT
ONEWEB-0046,2020-020Z,2026-06-05T07:39:21.720096,13.11417181,.0002055,87.8902,23.4315,80.5786,279.5574,0,U,45447,999,30105,.14223E-2,.517E-5,0
ONEWEB-0063,2020-020AA,2026-06-05T08:21:03.523680,13.11417904,.0002084,87.8903,23.4242,89.5424,270.5943,0,U,45448,999,30114,-.14139E-2,-.488E-5,0
ONEWEB-0019,2020-020AB,2026-06-05T09:16:50.033280,13.11417479,.0001646,87.8900,23.4036,86.3862,273.7454,0,U,45449,999,30099,.16553E-2,.599E-5,0
ONEWEB-0094,2020-020AC,2026-06-05T12:12:36.560736,13.17650532,.0001661,87.9152,8.1713,81.5835,278.5485,0,U,45450,999,30477,.51837E-4,.33E-6,0
ONEWEB-0087,2020-020AD,2026-06-05T08:35:18.390336,13.11417021,.0001896,87.8941,23.3929,75.9833,284.1505,0,U,45451,999,30103,-.82662E-3,-.28E-5,0
ONEWEB-0082,2020-020AE,2026-06-05T08:30:26.538912,13.11417680,.000206,87.8906,23.4139,72.8200,287.3153,0,U,45452,999,30112,-.13295E-2,-.458E-5,0
ONEWEB-0050,2020-020AF,2026-06-05T11:01:42.388896,14.90329995,.0004889,88.9298,234.8025,51.9713,308.1956,0,U,45453,999,33863,.25304E-3,.248E-4,0
ONEWEB-0034,2020-020AG,2026-06-05T09:22:47.005248,13.10934377,.0001775,87.8905,23.4154,83.1121,277.0209,0,U,45454,999,30104,.16889E-2,.607E-5,0
ONEWEB-0060,2020-020AH,2026-06-05T01:00:09.654624,13.11416544,.00018922,87.8895,23.4835,49.1346,310.9946,0,U,45455,999,30095,-.14686477E-2,-.508E-5,0
ONEWEB-0086,2020-020AJ,2026-06-05T07:49:03.967104,13.11471944,.0001331,87.8900,23.4234,0.6764,359.4366,0,U,45456,999,30105,-.93421E-2,-.33E-4,0
ONEWEB-0088,2020-020AK,2026-06-05T09:07:16.154976,13.11418769,.0002231,87.8918,23.3830,84.1734,275.9648,0,U,45457,999,30099,.10418E-2,.382E-5,0
ONEWEB-0102,2020-100A,2026-06-05T11:16:20.248320,13.12443391,.0001484,87.8944,353.0071,93.1174,267.0124,0,U,47258,999,26319,.74366E-3,.28E-5,0
ONEWEB-0109,2020-100B,2026-06-05T11:28:31.923264,13.12442421,.0001739,87.8954,352.9880,96.3286,263.8041,0,U,47259,999,26302,-.1353E-3,-.36E-6,0
ONEWEB-0110,2020-100C,2026-06-05T12:07:33.681216,13.12444339,.0001605,87.8951,352.9666,83.4195,276.7116,0,U,47260,999,26319,-.87493E-3,-.302E-5,0
ONEWEB-0111,2020-100D,2026-06-05T11:01:41.194848,13.12444404,.0001823,87.8949,352.9938,85.6355,274.4982,0,U,47261,999,26302,.1421E-2,.524E-5,0
ONEWEB-0114,2020-100E,2026-06-05T11:45:36.101088,13.12442777,.0001888,87.8951,352.9852,96.6795,263.4548,0,U,47262,999,26298,-.10738E-2,-.374E-5,0
ONEWEB-0117,2020-100F,2026-06-05T11:33:24.541056,13.12441756,.0001741,87.8956,352.9790,91.3153,268.8175,0,U,47263,999,26299,-.52455E-3,-.176E-5,0
ONEWEB-0118,2020-100G,2026-06-05T12:22:11.919072,13.12443188,.0002022,87.8948,352.9741,95.2744,264.8615,0,U,47264,999,26319,-.24429E-3,-.75E-6,0
ONEWEB-0119,2020-100H,2026-06-05T11:09:01.561824,13.12441895,.0001744,87.8938,353.0020,88.7626,271.3702,0,U,47265,999,26316,.69739E-3,.264E-5,0
ONEWEB-0120,2020-100J,2026-06-05T11:43:22.278720,13.12442649,.0001692,87.8940,352.9982,94.0378,266.0943,0,U,47266,999,26319,-.10452E-2,-.363E-5,0
ONEWEB-0121,2020-100K,2026-06-05T11:26:05.662752,13.12441921,.0001843,87.8952,352.9859,79.4438,280.6898,0,U,47267,999,26310,-.29683E-4,.2E-7,0
ONEWEB-0122,2020-100L,2026-06-05T11:17:34.086624,13.12440410,.0001516,87.8956,352.9918,95.9915,264.1386,0,U,47268,999,26301,.22398E-3,.93E-6,0
ONEWEB-0123,2020-100M,2026-06-05T11:11:28.072896,13.12442467,.0001868,87.8943,353.0015,94.9550,265.1792,0,U,47269,999,26315,.5279E-3,.203E-5,0
ONEWEB-0124,2020-100N,2026-06-05T10:56:49.835904,13.12443431,.0001826,87.8939,353.0059,86.9720,273.1617,0,U,47270,999,26303,.1299E-2,.48E-5,0
ONEWEB-0125,2020-100P,2026-06-05T12:14:53.008800,13.12444878,.0002048,87.8951,352.9772,84.0490,276.0872,0,U,47271,999,26310,-.64837E-3,-.221E-5,0
ONEWEB-0126,2020-100Q,2026-06-05T10:54:35.431200,13.12442233,.0001732,87.8946,353.0050,91.8782,268.2545,0,U,47272,999,26316,.1141E-2,.423E-5,0
ONEWEB-0127,2020-100R,2026-06-05T11:55:21.441216,13.12443716,.0001775,87.8940,352.9957,94.1724,265.9607,0,U,47273,999,26319,-.8542E-3,-.295E-5,0
ONEWEB-0128,2020-100S,2026-06-05T12:27:04.552416,13.12443299,.0001521,87.8937,353.0051,81.8726,278.2575,0,U,47274,999,26321,.98321E-4,.48E-6,0
ONEWEB-0129,2020-100T,2026-06-05T11:57:47.824416,13.12442716,.0001756,87.8949,352.9818,122.6165,237.5133,0,U,47275,999,26314,-.12794E-2,-.448E-5,0
ONEWEB-0130,2020-100U,2026-06-05T10:47:04.182144,13.12443529,.0001695,87.8950,352.9865,92.1944,267.9379,0,U,47276,999,26310,.11496E-2,.426E-5,0
