ONEWEB-0046             
1 45447U 20020Z   26156.31900139  .00000517  00000+0  14223-2 0  9990
2 45447  87.8902  23.4315 0002055  80.5786 279.5574 13.11417181301050
ONEWEB-0063             
1 45448U 20020AA  26156.34795745 -.00000488  00000+0 -14139-2 0  9994
2 45448  87.8903  23.4242 0002084  89.5424 270.5943 13.11417904301145
ONEWEB-0019             
1 45449U 20020AB  26156.38669020  .00000599  00000+0  16553-2 0  9998
2 45449  87.8900  23.4036 0001646  86.3862 273.7454 13.11417479300999
ONEWEB-0094             
1 45450U 20020AC  26156.50875649  .00000033  00000+0  51837-4 0  9999
2 45450  87.9152   8.1713 0001661  81.5835 278.5485 13.17650532304779
ONEWEB-0087             
1 45451U 20020AD  26156.35785174 -.00000280  00000+0 -82662-3 0  9991
2 45451  87.8941  23.3929 0001896  75.9833 284.1505 13.11417021301038
ONEWEB-0082             
1 45452U 20020AE  26156.35447383 -.00000458  00000+0 -13295-2 0  9991
2 45452  87.8906  23.4139 0002060  72.8200 287.3153 13.11417680301127
ONEWEB-0050             
1 45453U 20020AF  26156.45951839  .00002480  00000+0  25304-3 0  9999
2 45453  88.9298 234.8025 0004889  51.9713 308.1956 14.90329995338632
ONEWEB-0034             
1 45454U 20020AG  26156.39082182  .00000607  00000+0  16889-2 0  9995
2 45454  87.8905  23.4154 0001775  83.1121 277.0209 13.10934377301049
ONEWEB-0060             
1 45455U 20020AH  26156.04177841 -.00000508  00000+0 -14686-2 0  9990
2 45455  87.8895  23.4835 0001892  49.1346 310.9946 13.11416544300951
ONEWEB-0086             
1 45456U 20020AJ  26156.32574036 -.00003300  00000+0 -93421-2 0  9996
2 45456  87.8900  23.4234 0001331   0.6764 359.4366 13.11471944301057
ONEWEB-0088             
1 45457U 20020AK  26156.38004809  .00000382  00000+0  10418-2 0  9999
2 45457  87.8918  23.3830 0002231  84.1734 275.9648 13.11418769300995
ONEWEB-0102             
1 47258U 20100A   26156.46967880  .00000280  00000+0  74366-3 0  9995
2 47258  87.8944 353.0071 0001484  93.1174 267.0124 13.12443391263193
ONEWEB-0109             
1 47259U 20100B   26156.47814726 -.00000036  00000+0 -13530-3 0  9994
2 47259  87.8954 352.9880 0001739  96.3286 263.8041 13.12442421263020
ONEWEB-0110             
1 47260U 20100C   26156.50525094 -.00000302  00000+0 -87493-3 0  9992
2 47260  87.8951 352.9666 0001605  83.4195 276.7116 13.12444339263193
ONEWEB-0111             
1 47261U 20100D   26156.45950457  .00000524  00000+0  14210-2 0  9992
2 47261  87.8949 352.9938 0001823  85.6355 274.4982 13.12444404263028
ONEWEB-0114             
1 47262U 20100E   26156.49000117 -.00000374  00000+0 -10738-2 0  9992
2 47262  87.8951 352.9852 0001888  96.6795 263.4548 13.12442777262989
ONEWEB-0117             
1 47263U 20100F   26156.48153404 -.00000176  00000+0 -52455-3 0  9993
2 47263  87.8956 352.9790 0001741  91.3153 268.8175 13.12441756262996
ONEWEB-0118             
1 47264U 20100G   26156.51541573 -.00000075  00000+0 -24429-3 0  9994
2 47264  87.8948 352.9741 0002022  95.2744 264.8615 13.12443188263195
ONEWEB-0119             
1 47265U 20100H   26156.46460141  .00000264  00000+0  69739-3 0  9991
2 47265  87.8938 353.0020 0001744  88.7626 271.3702 13.12441895263163
ONEWEB-0120             
1 47266U 20100J   26156.48845230 -.00000363  00000+0 -10452-2 0  9999
2 47266  87.8940 352.9982 0001692  94.0378 266.0943 13.12442649263197
ONEWEB-0121             
1 47267U 20100K   26156.47645443  .00000002  00000+0 -29683-4 0  9990
2 47267  87.8952 352.9859 0001843  79.4438 280.6898 13.12441921263100
ONEWEB-0122             
1 47268U 20100L   26156.47053341  .00000093  00000+0  22398-3 0  9995
2 47268  87.8956 352.9918 0001516  95.9915 264.1386 13.12440410263012
ONEWEB-0123             
1 47269U 20100M   26156.46629714  .00000203  00000+0  52790-3 0  9990
2 47269  87.8943 353.0015 0001868  94.9550 265.1792 13.12442467263154
ONEWEB-0124             
1 47270U 20100N   26156.45613236  .00000480  00000+0  12990-2 0  9997
2 47270  87.8939 353.0059 0001826  86.9720 273.1617 13.12443431263037
ONEWEB-0125             
1 47271U 20100P   26156.51033575 -.00000221  00000+0 -64837-3 0  9990
2 47271  87.8951 352.9772 0002048  84.0490 276.0872 13.12444878263101
ONEWEB-0126             
1 47272U 20100Q   26156.45457675  .00000423  00000+0  11410-2 0  9995
2 47272  87.8946 353.0050 0001732  91.8782 268.2545 13.12442233263165
ONEWEB-0127             
1 47273U 20100R   26156.49677594 -.00000295  00000+0 -85420-3 0  9996
2 47273  87.8940 352.9957 0001775  94.1724 265.9607 13.12443716263196
ONEWEB-0128             
1 47274U 20100S   26156.51880269  .00000048  00000+0  98321-4 0  9994
2 47274  87.8937 353.0051 0001521  81.8726 278.2575 13.12443299263214
ONEWEB-0129             
1 47275U 20100T   26156.49847019 -.00000448  00000+0 -12794-2 0  9992
2 47275  87.8949 352.9818 0001756 122.6165 237.5133 13.12442716263141
ONEWEB-0130             
1 47276U 20100U   26156.44935396  .00000426  00000+0  11496-2 0  9996
2 47276  87.8950 352.9865 0001695  92.1944 267.9379 13.12443529263102
